{
  "type": "FeatureCollection",
  "features": [
    {
      "type": "Feature",
      "properties": {
        "norad_id": 43262,
        "name": "GAOFEN-1 04",
        "group": "resource",
        "lat": -78.31666323033942,
        "lon": 102.99709032206242,
        "alt_km": 648.2150912108209,
        "timestamp": "2025-12-27T18:38:03.136993+00:00",
        "meta_object_name": "GAOFEN-1 04",
        "meta_object_id": "2018-031D",
        "meta_epoch": "2025-12-27T12:29:49.178112",
        "meta_mean_motion": 14.76436819,
        "meta_eccentricity": 4.69e-05,
        "meta_inclination": 98.0784,
        "meta_ra_of_asc_node": 59.36,
        "meta_arg_of_pericenter": 69.6265,
        "meta_mean_anomaly": 290.4995,
        "meta_ephemeris_type": 0,
        "meta_classification_type": "U",
        "meta_norad_cat_id": 43262,
        "meta_element_set_no": 999,
        "meta_rev_at_epoch": 41735,
        "meta_bstar": 0.00018623,
        "meta_mean_motion_dot": 1.243e-05,
        "meta_mean_motion_ddot": 0,
        "tle_line1": "1 43262U 18031D   25361.52070808  .00001243  00000+0  18623-3 0  9999",
        "tle_line2": "2 43262  98.0784  59.3600 0000469  69.6265 290.4995 14.76436819417358"
      },
      "geometry": {
        "type": "Point",
        "coordinates": [
          102.99709032206242,
          -78.31666323033942
        ]
      }
    },
    {
      "type": "Feature",
      "properties": {
        "norad_id": 43437,
        "name": "SENTINEL-3B",
        "group": "resource",
        "lat": -77.59458903245059,
        "lon": 110.37524367263464,
        "alt_km": 811.051456539416,
        "timestamp": "2025-12-27T18:38:03.137004+00:00",
        "meta_object_name": "SENTINEL-3B",
        "meta_object_id": "2018-039A",
        "meta_epoch": "2025-12-27T10:35:53.212704",
        "meta_mean_motion": 14.26739705,
        "meta_eccentricity": 0.0001552,
        "meta_inclination": 98.6248,
        "meta_ra_of_asc_node": 66.4148,
        "meta_arg_of_pericenter": 87.0448,
        "meta_mean_anomaly": 273.091,
        "meta_ephemeris_type": 0,
        "meta_classification_type": "U",
        "meta_norad_cat_id": 43437,
        "meta_element_set_no": 999,
        "meta_rev_at_epoch": 39963,
        "meta_bstar": 7.8545e-05,
        "meta_mean_motion_dot": 1.46e-06,
        "meta_mean_motion_ddot": 0,
        "tle_line1": "1 43437U 18039A   25361.44158811  .00000146  00000+0  78545-4 0  9994",
        "tle_line2": "2 43437  98.6248  66.4148 0001552  87.0448 273.0910 14.26739705399639"
      },
      "geometry": {
        "type": "Point",
        "coordinates": [
          110.37524367263464,
          -77.59458903245059
        ]
      }
    },
    {
      "type": "Feature",
      "properties": {
        "norad_id": 43461,
        "name": "GAOFEN-5 01",
        "group": "resource",
        "lat": -69.68944997639399,
        "lon": -11.356812864103658,
        "alt_km": 698.8978475254899,
        "timestamp": "2025-12-27T18:38:03.137016+00:00",
        "meta_object_name": "GAOFEN-5 01",
        "meta_object_id": "2018-043A",
        "meta_epoch": "2025-12-27T10:44:21.598080",
        "meta_mean_motion": 14.60425697,
        "meta_eccentricity": 6.23e-05,
        "meta_inclination": 98.4348,
        "meta_ra_of_asc_node": 324.6732,
        "meta_arg_of_pericenter": 221.3673,
        "meta_mean_anomaly": 138.7479,
        "meta_ephemeris_type": 0,
        "meta_classification_type": "U",
        "meta_norad_cat_id": 43461,
        "meta_element_set_no": 999,
        "meta_rev_at_epoch": 40662,
        "meta_bstar": 0.00012286,
        "meta_mean_motion_dot": 5.46e-06,
        "meta_mean_motion_ddot": 0,
        "tle_line1": "1 43461U 18043A   25361.44747220  .00000546  00000+0  12286-3 0  9997",
        "tle_line2": "2 43461  98.4348 324.6732 0000623 221.3673 138.7479 14.60425697406629"
      },
      "geometry": {
        "type": "Point",
        "coordinates": [
          -11.356812864103658,
          -69.68944997639399
        ]
      }
    },
    {
      "type": "Feature",
      "properties": {
        "norad_id": 43484,
        "name": "GAOFEN-6",
        "group": "resource",
        "lat": 74.85491212150885,
        "lon": 35.10662753395807,
        "alt_km": 628.3990148248422,
        "timestamp": "2025-12-27T18:38:03.137026+00:00",
        "meta_object_name": "GAOFEN-6",
        "meta_object_id": "2018-048A",
        "meta_epoch": "2025-12-27T11:46:56.013312",
        "meta_mean_motion": 14.7659486,
        "meta_eccentricity": 0.0012394,
        "meta_inclination": 97.8008,
        "meta_ra_of_asc_node": 65.2611,
        "meta_arg_of_pericenter": 19.5582,
        "meta_mean_anomaly": 340.6102,
        "meta_ephemeris_type": 0,
        "meta_classification_type": "U",
        "meta_norad_cat_id": 43484,
        "meta_element_set_no": 999,
        "meta_rev_at_epoch": 40805,
        "meta_bstar": 0.00023495,
        "meta_mean_motion_dot": 1.593e-05,
        "meta_mean_motion_ddot": 0,
        "tle_line1": "1 43484U 18048A   25361.49092608  .00001593  00000+0  23495-3 0  9992",
        "tle_line2": "2 43484  97.8008  65.2611 0012394  19.5582 340.6102 14.76594860408050"
      },
      "geometry": {
        "type": "Point",
        "coordinates": [
          35.10662753395807,
          74.85491212150885
        ]
      }
    },
    {
      "type": "Feature",
      "properties": {
        "norad_id": 43585,
        "name": "GAOFEN-11 01",
        "group": "resource",
        "lat": -39.99431189279686,
        "lon": -121.46084324825387,
        "alt_km": 421.7685686034838,
        "timestamp": "2025-12-27T18:38:03.137036+00:00",
        "meta_object_name": "GAOFEN-11 01",
        "meta_object_id": "2018-063A",
        "meta_epoch": "2025-12-27T13:02:13.312896",
        "meta_mean_motion": 15.4964995,
        "meta_eccentricity": 0.0003909,
        "meta_inclination": 97.1536,
        "meta_ra_of_asc_node": 64.3561,
        "meta_arg_of_pericenter": 236.6319,
        "meta_mean_anomaly": 123.4559,
        "meta_ephemeris_type": 0,
        "meta_classification_type": "U",
        "meta_norad_cat_id": 43585,
        "meta_element_set_no": 999,
        "meta_rev_at_epoch": 41371,
        "meta_bstar": 0.00039577,
        "meta_mean_motion_dot": 0.00021852,
        "meta_mean_motion_ddot": 0,
        "tle_line1": "1 43585U 18063A   25361.54320964  .00021852  00000+0  39577-3 0  9994",
        "tle_line2": "2 43585  97.1536  64.3561 0003909 236.6319 123.4559 15.49649950413711"
      },
      "geometry": {
        "type": "Point",
        "coordinates": [
          -121.46084324825387,
          -39.99431189279686
        ]
      }
    },
    {
      "type": "Feature",
      "properties": {
        "norad_id": 43613,
        "name": "ICESAT-2",
        "group": "resource",
        "lat": -68.68430456749736,
        "lon": 59.64741679932916,
        "alt_km": 490.0358397800228,
        "timestamp": "2025-12-27T18:38:03.137046+00:00",
        "meta_object_name": "ICESAT-2",
        "meta_object_id": "2018-070A",
        "meta_epoch": "2025-12-27T11:15:48.301920",
        "meta_mean_motion": 15.28298663,
        "meta_eccentricity": 0.0003278,
        "meta_inclination": 92.0037,
        "meta_ra_of_asc_node": 244.7123,
        "meta_arg_of_pericenter": 107.9678,
        "meta_mean_anomaly": 252.1929,
        "meta_ephemeris_type": 0,
        "meta_classification_type": "U",
        "meta_norad_cat_id": 43613,
        "meta_element_set_no": 999,
        "meta_rev_at_epoch": 40623,
        "meta_bstar": 0.00047945,
        "meta_mean_motion_dot": 0.00013218,
        "meta_mean_motion_ddot": 0,
        "tle_line1": "1 43613U 18070A   25361.46930905  .00013218  00000+0  47945-3 0  9992",
        "tle_line2": "2 43613  92.0037 244.7123 0003278 107.9678 252.1929 15.28298663406236"
      },
      "geometry": {
        "type": "Point",
        "coordinates": [
          59.64741679932916,
          -68.68430456749736
        ]
      }
    },
    {
      "type": "Feature",
      "properties": {
        "norad_id": 43719,
        "name": "HYSIS",
        "group": "resource",
        "lat": -44.739670950019665,
        "lon": -123.33928508674269,
        "alt_km": 640.7156810353672,
        "timestamp": "2025-12-27T18:38:03.137056+00:00",
        "meta_object_name": "HYSIS",
        "meta_object_id": "2018-096A",
        "meta_epoch": "2025-12-27T11:07:21.405216",
        "meta_mean_motion": 14.78684832,
        "meta_eccentricity": 7.33e-05,
        "meta_inclination": 98.0074,
        "meta_ra_of_asc_node": 64.3679,
        "meta_arg_of_pericenter": 54.0878,
        "meta_mean_anomaly": 306.0401,
        "meta_ephemeris_type": 0,
        "meta_classification_type": "U",
        "meta_norad_cat_id": 43719,
        "meta_element_set_no": 999,
        "meta_rev_at_epoch": 38204,
        "meta_bstar": 0.00020809,
        "meta_mean_motion_dot": 1.474e-05,
        "meta_mean_motion_ddot": 0,
        "tle_line1": "1 43719U 18096A   25361.46344219  .00001474  00000+0  20809-3 0  9995",
        "tle_line2": "2 43719  98.0074  64.3679 0000733  54.0878 306.0401 14.78684832382046"
      },
      "geometry": {
        "type": "Point",
        "coordinates": [
          -123.33928508674269,
          -44.739670950019665
        ]
      }
    }
  ]
}